IRIDIUM 39              
1 25042U 97069D   25112.75205260  .00001437  00000+0  37184-3 0  9992
2 25042  86.3926 234.8801 0019668 128.4822 231.8150 14.49134541440938
IRIDIUM 38              
1 25043U 97069E   25112.85227569  .00000946  00000+0  30603-3 0  9993
2 25043  86.3931 256.4304 0000291  52.9080 307.2144 14.38055902438009
IRIDIUM 42              
1 25077U 97077A   25112.44225880  .00000928  00000+0  31111-3 0  9993
2 25077  86.3924 262.7086 0001489  80.8417 279.2948 14.36295349433193
IRIDIUM 44              
1 25078U 97077B   25112.82505315  .00000863  00000+0  26680-3 0  9993
2 25078  86.3954 244.6069 0002135 146.6665 213.4669 14.40185883435730
IRIDIUM 45              
1 25104U 97082A   25112.93408083  .00023112  00000+0  87391-3 0  9993
2 25104  86.3563  74.6749 0121950 176.6884 183.5197 15.20045173443643
IRIDIUM 24              
1 25105U 97082B   25112.93855315  .00001027  00000+0  30685-3 0  9993
2 25105  86.3858 103.7401 0009080 259.0619 100.9560 14.42030132435258
IRIDIUM 51              
1 25262U 98018A   25112.84917542  .00045981  00000+0  11389-2 0  9994
2 25262  86.3825  83.1445 0099218 102.1669 259.0718 15.35190864438526
IRIDIUM 57              
1 25273U 98019B   25112.76996143  .00000572  00000+0  19080-3 0  9996
2 25273  86.4004 168.4708 0002209  92.8478 267.2972 14.35850340416838
